{
  "type": "FeatureCollection",
  "features": [
    {
      "type": "Feature",
      "properties": {
        "norad_id": 40810,
        "name": "COSMOS 2251 DEB",
        "group": "cosmos-2251-debris",
        "lat": -27.236464032443983,
        "lon": -79.49812003437036,
        "alt_km": 692.2442756369373,
        "timestamp": "2025-12-03T15:48:03.464359+00:00",
        "meta_object_name": "COSMOS 2251 DEB",
        "meta_object_id": "1993-036BWP",
        "meta_epoch": "2025-12-02T07:34:18.151104",
        "meta_mean_motion": 14.58589191,
        "meta_eccentricity": 0.00187807,
        "meta_inclination": 74.0355,
        "meta_ra_of_asc_node": 94.5842,
        "meta_arg_of_pericenter": 246.5096,
        "meta_mean_anomaly": 113.4096,
        "meta_ephemeris_type": 0,
        "meta_classification_type": "U",
        "meta_norad_cat_id": 40810,
        "meta_element_set_no": 999,
        "meta_rev_at_epoch": 61531,
        "meta_bstar": 0.001131408,
        "meta_mean_motion_dot": 5.252e-05,
        "meta_mean_motion_ddot": 0,
        "tle_line1": "1 40810U 93036BWP 25336.31548786  .00005252  00000+0  11314-2 0  9990",
        "tle_line2": "2 40810  74.0355  94.5842 0018780 246.5096 113.4096 14.58589191615318"
      },
      "geometry": {
        "type": "Point",
        "coordinates": [
          -79.49812003437036,
          -27.236464032443983
        ]
      }
    },
    {
      "type": "Feature",
      "properties": {
        "norad_id": 46271,
        "name": "COSMOS 2251 DEB",
        "group": "cosmos-2251-debris",
        "lat": -33.11416863668364,
        "lon": 84.54202567459623,
        "alt_km": 735.2296952960987,
        "timestamp": "2025-12-03T15:48:03.464368+00:00",
        "meta_object_name": "COSMOS 2251 DEB",
        "meta_object_id": "1993-036BWT",
        "meta_epoch": "2025-12-02T01:54:44.684640",
        "meta_mean_motion": 14.51374966,
        "meta_eccentricity": 0.00407046,
        "meta_inclination": 74.046,
        "meta_ra_of_asc_node": 98.2636,
        "meta_arg_of_pericenter": 221.9387,
        "meta_mean_anomaly": 137.8656,
        "meta_ephemeris_type": 0,
        "meta_classification_type": "U",
        "meta_norad_cat_id": 46271,
        "meta_element_set_no": 999,
        "meta_rev_at_epoch": 84487,
        "meta_bstar": 0.0004698569,
        "meta_mean_motion_dot": 1.865e-05,
        "meta_mean_motion_ddot": 0,
        "tle_line1": "1 46271U 93036BWT 25336.07968385  .00001865  00000+0  46986-3 0  9991",
        "tle_line2": "2 46271  74.0460  98.2636 0040704 221.9387 137.8656 14.51374966844877"
      },
      "geometry": {
        "type": "Point",
        "coordinates": [
          84.54202567459623,
          -33.11416863668364
        ]
      }
    },
    {
      "type": "Feature",
      "properties": {
        "norad_id": 46430,
        "name": "COSMOS 2251 DEB",
        "group": "cosmos-2251-debris",
        "lat": 36.30536045142962,
        "lon": 25.81159001137604,
        "alt_km": 735.1554402459569,
        "timestamp": "2025-12-03T15:48:03.464377+00:00",
        "meta_object_name": "COSMOS 2251 DEB",
        "meta_object_id": "1993-036BWU",
        "meta_epoch": "2025-11-27T20:37:49.076256",
        "meta_mean_motion": 14.50926548,
        "meta_eccentricity": 0.01032827,
        "meta_inclination": 73.9144,
        "meta_ra_of_asc_node": 24.5566,
        "meta_arg_of_pericenter": 307.3694,
        "meta_mean_anomaly": 51.8093,
        "meta_ephemeris_type": 0,
        "meta_classification_type": "U",
        "meta_norad_cat_id": 46430,
        "meta_element_set_no": 999,
        "meta_rev_at_epoch": 79467,
        "meta_bstar": 0.0020948934,
        "meta_mean_motion_dot": 8.844e-05,
        "meta_mean_motion_ddot": 0,
        "tle_line1": "1 46430U 93036BWU 25331.85959579  .00008844  00000+0  20949-2 0  9998",
        "tle_line2": "2 46430  73.9144  24.5566 0103282 307.3694  51.8093 14.50926548794676"
      },
      "geometry": {
        "type": "Point",
        "coordinates": [
          25.81159001137604,
          36.30536045142962
        ]
      }
    },
    {
      "type": "Feature",
      "properties": {
        "norad_id": 46432,
        "name": "COSMOS 2251 DEB",
        "group": "cosmos-2251-debris",
        "lat": -46.533399278953574,
        "lon": 107.83196025971573,
        "alt_km": 972.6005591542789,
        "timestamp": "2025-12-03T15:48:03.464386+00:00",
        "meta_object_name": "COSMOS 2251 DEB",
        "meta_object_id": "1993-036BWW",
        "meta_epoch": "2025-11-27T18:14:15.472320",
        "meta_mean_motion": 13.36590206,
        "meta_eccentricity": 0.04736106,
        "meta_inclination": 73.8709,
        "meta_ra_of_asc_node": 134.8972,
        "meta_arg_of_pericenter": 254.8276,
        "meta_mean_anomaly": 119.6249,
        "meta_ephemeris_type": 0,
        "meta_classification_type": "U",
        "meta_norad_cat_id": 46432,
        "meta_element_set_no": 999,
        "meta_rev_at_epoch": 66766,
        "meta_bstar": 0.00093134132,
        "meta_mean_motion_dot": 8.92e-06,
        "meta_mean_motion_ddot": 0,
        "tle_line1": "1 46432U 93036BWW 25331.75990130  .00000892  00000+0  93134-3 0  9999",
        "tle_line2": "2 46432  73.8709 134.8972 0473610 254.8276 119.6249 13.36590206667662"
      },
      "geometry": {
        "type": "Point",
        "coordinates": [
          107.83196025971573,
          -46.533399278953574
        ]
      }
    },
    {
      "type": "Feature",
      "properties": {
        "norad_id": 47045,
        "name": "COSMOS 2251 DEB",
        "group": "cosmos-2251-debris",
        "lat": -63.97826509260058,
        "lon": 21.732569612917544,
        "alt_km": 757.9616939940579,
        "timestamp": "2025-12-03T15:48:03.464396+00:00",
        "meta_object_name": "COSMOS 2251 DEB",
        "meta_object_id": "1993-036BWZ",
        "meta_epoch": "2025-12-03T07:08:12.152832",
        "meta_mean_motion": 14.38891609,
        "meta_eccentricity": 0.00300843,
        "meta_inclination": 74.0566,
        "meta_ra_of_asc_node": 166.5562,
        "meta_arg_of_pericenter": 309.0569,
        "meta_mean_anomaly": 231.0781,
        "meta_ephemeris_type": 0,
        "meta_classification_type": "U",
        "meta_norad_cat_id": 47045,
        "meta_element_set_no": 999,
        "meta_rev_at_epoch": 7669,
        "meta_bstar": 0.00011843785,
        "meta_mean_motion_dot": 3.4e-06,
        "meta_mean_motion_ddot": 0,
        "tle_line1": "1 47045U 93036BWZ 25337.29736288  .00000340  00000+0  11844-3 0  9993",
        "tle_line2": "2 47045  74.0566 166.5562 0030084 309.0569 231.0781 14.38891609 76697"
      },
      "geometry": {
        "type": "Point",
        "coordinates": [
          21.732569612917544,
          -63.97826509260058
        ]
      }
    },
    {
      "type": "Feature",
      "properties": {
        "norad_id": 47048,
        "name": "COSMOS 2251 DEB",
        "group": "cosmos-2251-debris",
        "lat": 72.05815526686679,
        "lon": 93.8261746563427,
        "alt_km": 675.7001095499936,
        "timestamp": "2025-12-03T15:48:03.464423+00:00",
        "meta_object_name": "COSMOS 2251 DEB",
        "meta_object_id": "1993-036BXC",
        "meta_epoch": "2025-11-30T18:42:56.797920",
        "meta_mean_motion": 14.52124496,
        "meta_eccentricity": 0.01339598,
        "meta_inclination": 73.9788,
        "meta_ra_of_asc_node": 341.8156,
        "meta_arg_of_pericenter": 172.9598,
        "meta_mean_anomaly": 4.5515,
        "meta_ephemeris_type": 0,
        "meta_classification_type": "U",
        "meta_norad_cat_id": 47048,
        "meta_element_set_no": 999,
        "meta_rev_at_epoch": 59516,
        "meta_bstar": 0.0010173853,
        "meta_mean_motion_dot": 4.606e-05,
        "meta_mean_motion_ddot": 0,
        "tle_line1": "1 47048U 93036BXC 25334.77982405  .00004606  00000+0  10174-2 0  9993",
        "tle_line2": "2 47048  73.9788 341.8156 0133959 172.9598   4.5515 14.52124496595160"
      },
      "geometry": {
        "type": "Point",
        "coordinates": [
          93.8261746563427,
          72.05815526686679
        ]
      }
    },
    {
      "type": "Feature",
      "properties": {
        "norad_id": 47051,
        "name": "COSMOS 2251 DEB",
        "group": "cosmos-2251-debris",
        "lat": -33.328992564601734,
        "lon": -172.37251309773367,
        "alt_km": 768.2601530238326,
        "timestamp": "2025-12-03T15:48:03.464432+00:00",
        "meta_object_name": "COSMOS 2251 DEB",
        "meta_object_id": "1993-036BXF",
        "meta_epoch": "2025-12-01T21:55:10.667424",
        "meta_mean_motion": 13.67061051,
        "meta_eccentricity": 0.03413205,
        "meta_inclination": 74.1012,
        "meta_ra_of_asc_node": 201.2803,
        "meta_arg_of_pericenter": 317.1785,
        "meta_mean_anomaly": 62.4119,
        "meta_ephemeris_type": 0,
        "meta_classification_type": "U",
        "meta_norad_cat_id": 47051,
        "meta_element_set_no": 999,
        "meta_rev_at_epoch": 59790,
        "meta_bstar": 0.0015947644,
        "meta_mean_motion_dot": 1.973e-05,
        "meta_mean_motion_ddot": 0,
        "tle_line1": "1 47051U 93036BXF 25335.91331791  .00001973  00000+0  15948-2 0  9998",
        "tle_line2": "2 47051  74.1012 201.2803 0341320 317.1785  62.4119 13.67061051597908"
      },
      "geometry": {
        "type": "Point",
        "coordinates": [
          -172.37251309773367,
          -33.328992564601734
        ]
      }
    }
  ]
}